C/2017 S6 (Catalina),h,02/26.5627/2018,152.8674,131.0421,134.7984,1.000661,1.542735,2000,12.5,4.0
# From MPC114599
C/2017 S7 (Lemmon),h,05/25.6093/2017,124.2314,262.7878,187.6058,1.000841,7.608443,2000,7.0,4.0
# From MPC114599
P/2017 S8 (PANSTARRS),e,29.8197,191.6896,254.7316,2.778884,0.2127641,0.39238471,196.6375,08/09.0/2020,2000,g 16.0,4.0
# From MPC107050
P/2017 S9 (PANSTARRS),e,14.1438,146.2209,237.7199,3.153910,0.1759666,0.30501556,195.8077,08/09.0/2020,2000,g 17.0,4.0
# From MPC114600
C/2017 T1 (Heinze),e,96.8374,102.3186,96.9196,105299,0.0000000,0.99999447,0.0000,02/21.3575/2018,2000,g 14.5,4.0
# From MPEC 2020-N31
C/2017 T2 (PANSTARRS),e,57.2308,64.3774,92.9956,3626,0.0000045,0.99955451,0.0000,05/04.9539/2020,2000,g  5.0,4.0
# From MPC114600
C/2017 T3 (ATLAS),e,88.0446,230.0754,246.8328,1304,0.0000209,0.99936757,0.0000,07/18.9831/2018,2000,g 10.0,4.0
# From MPC115882
P/2017 TW13 (Lemmon),e,44.8487,322.2915,120.0297,7.147244,0.0515818,0.70937930,40.2424,08/09.0/2020,2000,g 15.0,2.0
# From MPC114600
C/2017 U2 (Fuls),e,95.3911,149.7103,147.7765,4017,0.0000039,0.99833087,0.0000,08/28.2776/2017,2000,g  9.0,4.0
# From MPC114600
P/2017 U3 (PANSTARRS),e,15.9141,165.1080,297.0506,4.931319,0.0900035,0.09890434,43.1141,08/09.0/2020,2000,g 11.0,4.0
# From MPC114600
C/2017 U4 (PANSTARRS),h,09/23.9436/2018,158.2202,245.9482,159.0640,1.003111,7.722107,2000,7.0,4.0
# From MPC114600
C/2017 U5 (PANSTARRS),e,18.9698,163.0856,262.0522,16.87493,0.0142181,0.74385257,13.7145,08/09.0/2020,2000,g 12.0,4.0
# From MPEC 2020-N31
C/2017 U7 (PANSTARRS),h,09/13.8770/2019,142.6038,276.2439,326.2684,1.002286,6.421095,2000,8.3,2.0
# From MPC114600
C/2017 W2 (Leonard),e,98.1990,312.8396,169.0832,13.67656,0.0194867,0.71086956,19.7105,08/09.0/2020,2000,g 11.0,4.0
# From MPC114601
P/2017 W3 (Gibbs),e,18.1764,210.3671,327.6596,7.843886,0.0448649,0.50825774,39.9976,08/09.0/2020,2000,g 10.5,4.0
# From MPC115883
C/2017 X1 (PANSTARRS),e,31.3034,251.1298,283.2853,31.42717,0.0055943,0.85145621,4.3944,08/09.0/2020,2000,g 10.0,4.0
# From MPC117069
C/2017 Y1 (PANSTARRS),e,55.2664,307.5302,134.3427,1904,0.0000119,0.99804967,0.0000,08/31.1354/2017,2000,g 11.5,4.0
# From MPEC 2020-N31
C/2017 Y2 (PANSTARRS),h,11/04.5428/2020,128.4232,65.9843,147.8557,1.000921,4.632114,2000,15.0,4.0
# From MPC111770
P/2017 Y3 (Leonard),e,27.5653,153.8544,67.5875,9.850747,0.0318787,0.87027532,29.0118,08/09.0/2020,2000,g 16.5,4.0
# From MPC114601
C/2018 A1 (PANSTARRS),e,53.5990,336.6429,96.2987,25.11269,0.0078318,0.90377501,8.0173,08/09.0/2020,2000,g 12.5,4.0
# From MPC119996
C/2018 A3 (ATLAS),e,139.5493,194.2935,86.4037,486.5520,0.0000918,0.99326728,0.0000,01/12.7151/2019,2000,g  8.5,4.0
# From MPC114601
C/2018 A4 (PANSTARRS),e,3.1482,97.6342,356.0668,12.21379,0.0230902,0.80340532,18.7834,08/09.0/2020,2000,g 14.0,4.0
# From MPC109147
P/2018 A5 (PANSTARRS),e,23.5785,87.8291,359.6014,5.637321,0.0736368,0.52222506,77.3801,08/09.0/2020,2000,g 15.0,4.0
# From MPEC 2020-N31
C/2018 A6 (Gibbs),e,76.9617,340.3816,264.5536,15.34208,0.0164013,0.80326243,6.4240,08/09.0/2020,2000,g  9.0,4.0
# From MPC118841
C/2018 B1 (Lemmon),h,03/29.7226/2018,162.4200,133.1909,68.3094,1.001445,5.115251,2000,9.0,4.0
# From MPC114601
P/2018 C1 (Lemmon-Read),e,5.1292,270.3926,235.5878,5.651940,0.0733513,0.53428016,65.5728,08/09.0/2020,2000,g 13.5,4.0
# From MPEC 2020-N31
C/2018 C2 (Lemmon),h,06/01.9004/2018,34.4585,91.1403,134.1162,1.000931,1.957429,2000,13.0,4.0
# From MPEC 2020-AA5
C/2018 DO4 (Lemmon),e,160.4741,251.1316,175.9615,25.75866,0.0075391,0.90659503,2.6888,08/09.0/2020,2000,g 11.0,4.0
# From MPC114602
C/2018 E1 (ATLAS),e,72.5094,146.8574,299.4233,54.00865,0.0024832,0.94994257,2.0976,08/09.0/2020,2000,g 10.5,4.0
# From MPC114602
C/2018 E2 (Barros),e,97.7238,67.1993,277.4763,3861,0.0000041,0.99898448,0.0000,12/23.9717/2017,2000,g 10.5,4.0
# From MPC114602
C/2018 EN4 (NEOWISE),e,81.6105,136.1489,35.0096,18.27302,0.0126179,0.92068117,10.0146,08/09.0/2020,2000,g 15.0,4.0
# From MPC114602
C/2018 EF9 (Lemmon),e,84.6525,172.5713,72.6206,579.0871,0.0000707,0.99731087,0.0000,05/22.9660/2018,2000,g 18.0,2.0
# From MPC115883
C/2018 F1 (Grauer),e,46.0753,177.2764,71.6395,295.1567,0.0001944,0.98985680,0.0000,12/13.9463/2018,2000,g 11.5,4.0
# From MPC110084
C/2018 F3 (Johnson),p,08/15.2314/2017,105.5348,293.0113,2.483172,173.0311,2000,13.0,4.0
# From MPEC 2020-N31
C/2018 F4 (PANSTARRS),h,12/04.1392/2019,78.0967,26.5109,263.2221,1.001515,3.440076,2000,11.9,2.0
# From MPC114602
P/2018 H2 (PANSTARRS),e,7.3880,68.4246,120.0104,4.395427,0.1069553,0.53987729,99.3835,08/09.0/2020,2000,g 16.6,2.0
# From MPC114602
C/2018 K1 (Weiland),e,164.1961,260.0235,325.0352,29.89736,0.0060291,0.93708948,5.1564,08/09.0/2020,2000,g 14.9,4.0
# From MPEC 2020-N31
C/2018 KJ3 (Lemmon),e,136.7092,91.5957,217.6466,775.2354,0.0000457,0.99531879,0.0000,09/09.6051/2019,2000,g 12.2,2.0
# From MPC114602
P/2018 L1 (PANSTARRS),e,10.5941,268.6285,17.9591,3.649933,0.1413438,0.48299852,89.8057,08/09.0/2020,2000,g 15.0,4.0
# From MPC118841
C/2018 L2 (ATLAS),e,67.4053,243.0232,56.2625,256.5926,0.0002398,0.99332649,0.0000,12/02.6653/2018,2000,g 10.0,4.0
# From MPC114603
P/2018 L4 (PANSTARRS),e,26.6239,145.1630,140.5313,4.939155,0.0897894,0.66028380,66.3620,08/09.0/2020,2000,g 17.5,4.0
# From MPC119996
P/2018 L5 (Leonard),e,2.2085,219.1413,93.7606,3.627311,0.1426681,0.36481013,117.9927,08/09.0/2020,2000,g 14.5,4.0
# From MPC117070
C/2018 M1 (Catalina),e,37.2818,339.4248,14.1511,21.32424,0.0100091,0.93891654,7.6151,08/09.0/2020,2000,g 15.5,4.0
# From MPC112393
C/2018 N1 (NEOWISE),e,159.4456,292.4409,354.5977,340.2185,0.0001571,0.99615238,0.0000,08/01.9078/2018,2000,g 15.5,4.0
# From MPEC 2020-N31
C/2018 N2 (ASASSN),h,11/10.9613/2019,77.5282,25.2525,24.3982,1.000098,3.124659,2000,6.0,4.0
# From MPC114603
C/2018 O1 (ATLAS),e,154.0417,87.6310,162.5488,27.84321,0.0067085,0.94398158,4.7527,08/09.0/2020,2000,g 17.0,4.0
# From MPC114603
P/2018 P3 (PANSTARRS),e,8.9084,59.1947,305.8648,3.006573,0.1890586,0.41628849,126.5552,08/09.0/2020,2000,g 14.5,4.0
# From MPC114603
P/2018 P4 (PANSTARRS),e,23.1065,353.0845,8.1789,6.668716,0.0572322,0.45022474,36.6458,08/09.0/2020,2000,g 12.0,4.0
# From MPC118094
C/2018 P5 (PANSTARRS),e,7.2543,216.2448,131.6891,12.78482,0.0215607,0.64202784,11.4110,08/09.0/2020,2000,g 11.0,4.0
# From MPC118841
C/2018 R3 (Lemmon),e,69.7249,324.6332,112.8542,1757,0.0000134,0.99926586,0.0000,06/07.1994/2019,2000,g  9.5,4.0
# From MPC112393
C/2018 R4 (Fuls),e,11.6839,298.4337,345.2512,324.4244,0.0001687,0.99472237,0.0000,03/03.6924/2018,2000,g 14.0,4.0
# From MPC114603
C/2018 R5 (Lemmon),e,103.7487,171.1346,178.0349,22.79004,0.0090591,0.84106266,5.2271,08/09.0/2020,2000,g 11.5,4.0
# From MPEC 2020-N31
C/2018 U1 (Lemmon),h,11/02.7964/2021,108.3015,75.4769,180.4185,1.000742,4.993955,2000,5.0,4.0
# From MPC114604
C/2018 V1 (Machholz-Fujikawa-Iwamoto),h,12/03.4258/2018,144.0533,128.8775,88.8323,1.000387,0.385778,2000,12.0,4.0
# From MPC115884
C/2018 V2 (ATLAS),e,159.1517,356.9760,318.9160,25.39600,0.0077012,0.90239210,4.7838,08/09.0/2020,2000,g 15.0,4.0
# From MPC114604
P/2018 VN2 (Leonard),e,18.2474,226.5293,138.7266,4.064859,0.1202641,0.47829662,95.6729,08/09.0/2020,2000,g 15.0,4.0
# From MPEC 2020-N31
A/2018 V3,e,164.9779,308.6569,3.5006,120.7678,0.0007426,0.98890689,0.0000,09/08.6773/2019,2000,g 15.7,2.0
# From MPC114604
C/2018 V4 (Africano),e,69.0033,78.3753,359.9598,208.3809,0.0003277,0.98465303,0.0000,03/01.4865/2019,2000,g 12.5,4.0
# From MPC114604
P/2018 V5 (Trujillo-Sheppard),e,10.5834,171.2940,260.7211,8.954428,0.0367830,0.47449479,24.8675,08/09.0/2020,2000,g 12.5,4.0
# From MPC115884
C/2018 W1 (Catalina),e,83.2578,233.5912,251.2552,21.75450,0.0097136,0.93745830,4.4217,08/09.0/2020,2000,g 15.7,2.0
# From MPEC 2020-N31
C/2018 W2 (Africano),h,09/05.7032/2019,116.6169,181.8538,157.9751,1.000555,1.454777,2000,9.5,4.0
# From MPC119996
C/2018 X2 (Fitzsimmons),e,23.0695,340.8285,162.0597,149.9561,0.0005367,0.98582045,0.0000,07/08.5083/2019,2000,g 12.0,4.0
# From MPC114604
C/2018 X3 (PANSTARRS),e,43.3692,78.9174,359.7759,12.38608,0.0226101,0.78221662,13.2811,08/09.0/2020,2000,g 14.5,4.0
# From MPC118842
C/2018 Y1 (Iwamoto),e,160.4011,147.5062,358.0415,143.0947,0.0005758,0.99101386,0.0000,02/07.0410/2019,2000,g 11.5,4.0
# From MPC114605
P/2018 Y2 (Africano),e,11.6829,297.2678,162.4002,7.465539,0.0483184,0.47869181,28.2675,08/09.0/2020,2000,g 11.5,4.0
# From MPC114605
P/2019 A1 (PANSTARRS),e,13.7442,312.3032,150.8141,5.124772,0.0849556,0.56841423,56.7656,08/09.0/2020,2000,g 16.0,4.0
# From MPC114605
P/2019 A2 (ATLAS),e,14.8602,139.4665,324.1199,5.725236,0.0719472,0.38139591,45.1235,08/09.0/2020,2000,g 10.5,4.0
# From MPC114605
P/2019 A3 (PANSTARRS),e,15.3654,31.3110,325.4775,3.147185,0.1765309,0.26537581,130.2781,08/09.0/2020,2000,g 16.0,4.0
# From MPC114605
P/2019 A4 (PANSTARRS),e,13.3207,119.2998,341.6757,2.613276,0.2333061,0.08911156,143.1500,08/09.0/2020,2000,g 15.0,4.0
# From MPEC 2020-N31
C/2019 A5 (PANSTARRS),e,67.5545,146.6237,356.0036,21.60862,0.0098121,0.70735632,4.1898,08/09.0/2020,2000,g  9.5,4.0
# From MPC114605
P/2019 A6 (Lemmon-PANSTARRS),e,33.2293,280.2736,156.2353,5.364857,0.0793171,0.63891386,56.3828,08/09.0/2020,2000,g 16.0,4.0
# From MPC114605
P/2019 A7 (PANSTARRS),e,17.7743,280.5245,119.2973,3.185989,0.1733156,0.16101058,163.7410,08/09.0/2020,2000,g 13.5,4.0
# From MPC115884
P/2019 A8 (PANSTARRS),e,3.0095,127.6289,22.0869,3.365434,0.1596403,0.44475295,112.0424,08/09.0/2020,2000,g 16.0,4.0
# From MPEC 2020-N31
C/2019 A9 (PANSTARRS),e,84.2898,278.3792,237.9339,39.94137,0.0039045,0.96421586,1.4811,08/09.0/2020,2000,g 15.0,4.0
# From MPC114606
C/2019 B1 (Africano),e,123.3631,290.4370,174.8568,148.7069,0.0005435,0.98926274,0.0000,03/19.8547/2019,2000,g 16.0,4.0
# From MPC115885
P/2019 B2 (Groeller),e,16.8265,176.4051,358.9349,3.857825,0.1300739,0.37317390,55.5957,08/09.0/2020,2000,g 14.5,4.0
# From MPEC 2020-N31
C/2019 B3 (PANSTARRS),h,01/19.8608/2021,66.5349,358.4223,263.9019,1.002791,6.822980,2000,5.5,4.0
# From MPEC 2020-N31
